TEVEL2-6                
1 63215U 25052F   26068.64958975  .00021046  00000+0  70909-3 0  9996
2 63215  97.4016 325.0381 0004769  95.6604 264.5181 15.30760889 54861
STARLINK-33737          
1 63456U 25069Z   26068.47815767  .00022307  00000+0  76331-3 0  9999
2 63456  53.1584 143.3420 0000960  92.8182 267.2928 15.30187680 53265
